FLOCK 2K-48             
1 42855U 17042AG  17345.67821914  .00003631  00000-0  10885-3 0  9994
2 42855  96.9939 246.7326 0012692  73.3904 286.8733 15.35011562 22850
